STARLINK-31726          
1 59739U 24090K   26068.29693298 -.00001600  00000+0 -48633-4 0  9994
2 59739  43.0034 185.4077 0000578 225.4163 134.6642 15.27579545103385
FLOCK 4G-25             
1 62646U 25009AP  26068.74572546  .00010373  00000+0  38902-3 0  9990
2 62646  97.4049 151.4141 0000828 316.3151  43.8023 15.27424196 63734
